{
  "type": "FeatureCollection",
  "features": [
    {
      "type": "Feature",
      "properties": {
        "norad_id": 29894,
        "name": "FENGYUN 1C DEB",
        "group": "fengyun-1c-debris",
        "lat": -14.47256445680103,
        "lon": -143.84615701418943,
        "alt_km": 1063.2433778896093,
        "timestamp": "2025-12-10T07:43:55.051483+00:00",
        "meta_object_name": "FENGYUN 1C DEB",
        "meta_object_id": "1999-025GQ",
        "meta_epoch": "2025-12-09T03:14:38.235264",
        "meta_mean_motion": 13.80966016,
        "meta_eccentricity": 0.01686423,
        "meta_inclination": 99.4861,
        "meta_ra_of_asc_node": 37.4352,
        "meta_arg_of_pericenter": 54.5588,
        "meta_mean_anomaly": 0.8147,
        "meta_ephemeris_type": 0,
        "meta_classification_type": "U",
        "meta_norad_cat_id": 29894,
        "meta_element_set_no": 999,
        "meta_rev_at_epoch": 95027,
        "meta_bstar": 0.00068951431,
        "meta_mean_motion_dot": 7.66e-06,
        "meta_mean_motion_ddot": 0,
        "tle_line1": "1 29894U 99025GQ  25343.13516476  .00000766  00000+0  68951-3 0  9997",
        "tle_line2": "2 29894  99.4861  37.4352 0168642  54.5588   0.8147 13.80966016950270"
      },
      "geometry": {
        "type": "Point",
        "coordinates": [
          -143.84615701418943,
          -14.47256445680103
        ]
      }
    },
    {
      "type": "Feature",
      "properties": {
        "norad_id": 29895,
        "name": "FENGYUN 1C DEB",
        "group": "fengyun-1c-debris",
        "lat": 58.37339230620918,
        "lon": 76.0336525922912,
        "alt_km": 778.2882231670173,
        "timestamp": "2025-12-10T07:43:55.051493+00:00",
        "meta_object_name": "FENGYUN 1C DEB",
        "meta_object_id": "1999-025GR",
        "meta_epoch": "2025-12-09T12:59:51.056160",
        "meta_mean_motion": 14.08183811,
        "meta_eccentricity": 0.0299353,
        "meta_inclination": 99.8849,
        "meta_ra_of_asc_node": 91.6254,
        "meta_arg_of_pericenter": 352.4795,
        "meta_mean_anomaly": 69.0757,
        "meta_ephemeris_type": 0,
        "meta_classification_type": "U",
        "meta_norad_cat_id": 29895,
        "meta_element_set_no": 999,
        "meta_rev_at_epoch": 95479,
        "meta_bstar": 0.0025966,
        "meta_mean_motion_dot": 6.637e-05,
        "meta_mean_motion_ddot": 0,
        "tle_line1": "1 29895U 99025GR  25343.54156315  .00006637  00000+0  25966-2 0  9996",
        "tle_line2": "2 29895  99.8849  91.6254 0299353 352.4795  69.0757 14.08183811954798"
      },
      "geometry": {
        "type": "Point",
        "coordinates": [
          76.0336525922912,
          58.37339230620918
        ]
      }
    },
    {
      "type": "Feature",
      "properties": {
        "norad_id": 29896,
        "name": "FENGYUN 1C DEB",
        "group": "fengyun-1c-debris",
        "lat": 41.1284206170758,
        "lon": 64.45536927566074,
        "alt_km": 858.3357781715995,
        "timestamp": "2025-12-10T07:43:55.051503+00:00",
        "meta_object_name": "FENGYUN 1C DEB",
        "meta_object_id": "1999-025GS",
        "meta_epoch": "2025-12-09T10:48:16.231968",
        "meta_mean_motion": 13.6536171,
        "meta_eccentricity": 0.02395756,
        "meta_inclination": 99.4224,
        "meta_ra_of_asc_node": 235.2705,
        "meta_arg_of_pericenter": 110.381,
        "meta_mean_anomaly": 62.5826,
        "meta_ephemeris_type": 0,
        "meta_classification_type": "U",
        "meta_norad_cat_id": 29896,
        "meta_element_set_no": 999,
        "meta_rev_at_epoch": 93997,
        "meta_bstar": 0.00083876437,
        "meta_mean_motion_dot": 7.89e-06,
        "meta_mean_motion_ddot": 0,
        "tle_line1": "1 29896U 99025GS  25343.45018787  .00000789  00000+0  83876-3 0  9994",
        "tle_line2": "2 29896  99.4224 235.2705 0239575 110.3810  62.5826 13.65361710939974"
      },
      "geometry": {
        "type": "Point",
        "coordinates": [
          64.45536927566074,
          41.1284206170758
        ]
      }
    },
    {
      "type": "Feature",
      "properties": {
        "norad_id": 29897,
        "name": "FENGYUN 1C DEB",
        "group": "fengyun-1c-debris",
        "lat": 52.33916270051192,
        "lon": 40.230815548948854,
        "alt_km": 831.5334608495268,
        "timestamp": "2025-12-10T07:43:55.051513+00:00",
        "meta_object_name": "FENGYUN 1C DEB",
        "meta_object_id": "1999-025GT",
        "meta_epoch": "2025-12-09T13:34:35.680800",
        "meta_mean_motion": 13.57166618,
        "meta_eccentricity": 0.0296408,
        "meta_inclination": 98.6289,
        "meta_ra_of_asc_node": 208.2196,
        "meta_arg_of_pericenter": 147.0722,
        "meta_mean_anomaly": 246.6952,
        "meta_ephemeris_type": 0,
        "meta_classification_type": "U",
        "meta_norad_cat_id": 29897,
        "meta_element_set_no": 999,
        "meta_rev_at_epoch": 92897,
        "meta_bstar": 0.002656,
        "meta_mean_motion_dot": 2.483e-05,
        "meta_mean_motion_ddot": 0,
        "tle_line1": "1 29897U 99025GT  25343.56569075  .00002483  00000+0  26560-2 0  9997",
        "tle_line2": "2 29897  98.6289 208.2196 0296408 147.0722 246.6952 13.57166618928972"
      },
      "geometry": {
        "type": "Point",
        "coordinates": [
          40.230815548948854,
          52.33916270051192
        ]
      }
    },
    {
      "type": "Feature",
      "properties": {
        "norad_id": 29898,
        "name": "FENGYUN 1C DEB",
        "group": "fengyun-1c-debris",
        "lat": 54.861932675607044,
        "lon": -34.842811357325004,
        "alt_km": 1229.1963073972101,
        "timestamp": "2025-12-10T07:43:55.051523+00:00",
        "meta_object_name": "FENGYUN 1C DEB",
        "meta_object_id": "1999-025GU",
        "meta_epoch": "2025-12-09T18:16:44.115744",
        "meta_mean_motion": 13.70283356,
        "meta_eccentricity": 0.0427208,
        "meta_inclination": 98.2232,
        "meta_ra_of_asc_node": 336.5324,
        "meta_arg_of_pericenter": 197.3444,
        "meta_mean_anomaly": 337.9887,
        "meta_ephemeris_type": 0,
        "meta_classification_type": "U",
        "meta_norad_cat_id": 29898,
        "meta_element_set_no": 999,
        "meta_rev_at_epoch": 93120,
        "meta_bstar": 0.0026857,
        "meta_mean_motion_dot": 4.492e-05,
        "meta_mean_motion_ddot": 0,
        "tle_line1": "1 29898U 99025GU  25343.76162171  .00004492  00000+0  26857-2 0  9997",
        "tle_line2": "2 29898  98.2232 336.5324 0427208 197.3444 337.9887 13.70283356931203"
      },
      "geometry": {
        "type": "Point",
        "coordinates": [
          -34.842811357325004,
          54.861932675607044
        ]
      }
    },
    {
      "type": "Feature",
      "properties": {
        "norad_id": 29899,
        "name": "FENGYUN 1C DEB",
        "group": "fengyun-1c-debris",
        "lat": 25.199315890615193,
        "lon": 136.07530557912904,
        "alt_km": 976.0400301454729,
        "timestamp": "2025-12-10T07:43:55.051533+00:00",
        "meta_object_name": "FENGYUN 1C DEB",
        "meta_object_id": "1999-025GV",
        "meta_epoch": "2025-12-08T21:29:46.753728",
        "meta_mean_motion": 13.37490697,
        "meta_eccentricity": 0.0353596,
        "meta_inclination": 98.6616,
        "meta_ra_of_asc_node": 138.9711,
        "meta_arg_of_pericenter": 88.6219,
        "meta_mean_anomaly": 275.5384,
        "meta_ephemeris_type": 0,
        "meta_classification_type": "U",
        "meta_norad_cat_id": 29899,
        "meta_element_set_no": 999,
        "meta_rev_at_epoch": 92033,
        "meta_bstar": 0.00026588,
        "meta_mean_motion_dot": 1.68e-06,
        "meta_mean_motion_ddot": 0,
        "tle_line1": "1 29899U 99025GV  25342.89568002  .00000168  00000+0  26588-3 0  9992",
        "tle_line2": "2 29899  98.6616 138.9711 0353596  88.6219 275.5384 13.37490697920330"
      },
      "geometry": {
        "type": "Point",
        "coordinates": [
          136.07530557912904,
          25.199315890615193
        ]
      }
    },
    {
      "type": "Feature",
      "properties": {
        "norad_id": 29901,
        "name": "FENGYUN 1C DEB",
        "group": "fengyun-1c-debris",
        "lat": -70.88221998027068,
        "lon": -50.863680711677816,
        "alt_km": 914.6125815972582,
        "timestamp": "2025-12-10T07:43:55.051544+00:00",
        "meta_object_name": "FENGYUN 1C DEB",
        "meta_object_id": "1999-025GX",
        "meta_epoch": "2025-12-09T10:45:32.870304",
        "meta_mean_motion": 13.33251065,
        "meta_eccentricity": 0.03791844,
        "meta_inclination": 98.7445,
        "meta_ra_of_asc_node": 154.7489,
        "meta_arg_of_pericenter": 293.5309,
        "meta_mean_anomaly": 89.8792,
        "meta_ephemeris_type": 0,
        "meta_classification_type": "U",
        "meta_norad_cat_id": 29901,
        "meta_element_set_no": 999,
        "meta_rev_at_epoch": 91875,
        "meta_bstar": 0.0006546712,
        "meta_mean_motion_dot": 4.43e-06,
        "meta_mean_motion_ddot": 0,
        "tle_line1": "1 29901U 99025GX  25343.44829711  .00000443  00000+0  65467-3 0  9990",
        "tle_line2": "2 29901  98.7445 154.7489 0379184 293.5309  89.8792 13.33251065918753"
      },
      "geometry": {
        "type": "Point",
        "coordinates": [
          -50.863680711677816,
          -70.88221998027068
        ]
      }
    }
  ]
}